[
  {
    "name": "STARLINK-37404",
    "noradId": "68786",
    "line1": "1 68786U 26086W   26176.54682793  .00011381  00000+0  35389-3 0  9997",
    "line2": "2 68786  97.2833 213.2811 0000975  57.9623 302.1714 15.33484938 10366"
  },
  {
    "name": "STARLINK-37292",
    "noradId": "68787",
    "line1": "1 68787U 26086X   26176.53868802  .00023616  00000+0  73114-3 0  9996",
    "line2": "2 68787  97.2854 213.2905 0000530  76.3507 283.7794 15.33463172 10366"
  },
  {
    "name": "STARLINK-37403",
    "noradId": "68788",
    "line1": "1 68788U 26086Y   26176.54412328  .00023979  00000+0  74249-3 0  9998",
    "line2": "2 68788  97.2857 213.2850 0000459 111.0423 249.0869 15.33455626 10366"
  },
  {
    "name": "STARLINK-37413",
    "noradId": "68789",
    "line1": "1 68789U 26086Z   26176.54955812  .00016434  00000+0  51000-3 0  9997",
    "line2": "2 68789  97.2869 213.2756 0000518 114.5091 245.6206 15.33461025 10367"
  },
  {
    "name": "STARLINK-37313",
    "noradId": "68790",
    "line1": "1 68790U 26086AA  26176.58335648  .00062974  00000+0  19383-2 0  9999",
    "line2": "2 68790  97.2853 214.1098 0001514  97.5180 170.8842 15.33418757  5966"
  },
  {
    "name": "STARLINK-37471",
    "noradId": "68802",
    "line1": "1 68802U 26089A   26176.51430695  .00031030  00000+0  95903-3 0  9999",
    "line2": "2 68802  97.2868  23.4377 0001682  91.0825 269.0611 15.33461021  9925"
  },
  {
    "name": "STARLINK-37460",
    "noradId": "68803",
    "line1": "1 68803U 26089B   26176.51159010  .00024676  00000+0  76345-3 0  9996",
    "line2": "2 68803  97.2852  23.4406 0002694  89.9528 270.2024 15.33472528  9928"
  },
  {
    "name": "STARLINK-37473",
    "noradId": "68804",
    "line1": "1 68804U 26089C   26176.57412293  .00007812  00000+0  24399-3 0  9993",
    "line2": "2 68804  97.2853  23.5088 0002337 109.4115 250.7380 15.33449281  9930"
  },
  {
    "name": "STARLINK-36832",
    "noradId": "68805",
    "line1": "1 68805U 26089D   26176.56868553  .00016379  00000+0  50822-3 0  9995",
    "line2": "2 68805  97.2852  23.5184 0002142 111.9632 248.1838 15.33464649  9937"
  },
  {
    "name": "STARLINK-37370",
    "noradId": "68806",
    "line1": "1 68806U 26089E   26176.57140981  .00008851  00000+0  27620-3 0  9991",
    "line2": "2 68806  97.2857  23.5127 0002476  84.0961 276.0564 15.33439723  9936"
  },
  {
    "name": "STARLINK-37366",
    "noradId": "68807",
    "line1": "1 68807U 26089F   26176.56597864  .00023083  00000+0  71443-3 0  9993",
    "line2": "2 68807  97.2848  23.5198 0002600 107.9245 252.2282 15.33474169  9930"
  },
  {
    "name": "STARLINK-37446",
    "noradId": "68808",
    "line1": "1 68808U 26089G   26176.58335648  .00022183  00000+0  68747-3 0  9999",
    "line2": "2 68808  97.2851  23.5434 0001625  98.0606  12.9458 15.33442328  5973"
  },
  {
    "name": "STARLINK-37405",
    "noradId": "68809",
    "line1": "1 68809U 26089H   26176.58335648  .00022012  00000+0  68244-3 0  9993",
    "line2": "2 68809  97.2851  23.5505 0002306  87.6672  38.4038 15.33430250  6000"
  },
  {
    "name": "STARLINK-37447",
    "noradId": "68810",
    "line1": "1 68810U 26089J   26176.55780869  .00014520  00000+0  45111-3 0  9994",
    "line2": "2 68810  97.2868  23.5352 0001438  84.0275 276.1132 15.33453418  9937"
  },
  {
    "name": "STARLINK-37442",
    "noradId": "68811",
    "line1": "1 68811U 26089K   26176.55237208  .00022013  00000+0  68190-3 0  9997",
    "line2": "2 68811  97.2860  23.5404 0001724  98.1679 261.9760 15.33457970  9936"
  },
  {
    "name": "STARLINK-37431",
    "noradId": "68812",
    "line1": "1 68812U 26089L   26176.55509002  .00022935  00000+0  71046-3 0  9999",
    "line2": "2 68812  97.2859  23.5361 0001673 100.4972 259.6459 15.33449627  9932"
  },
  {
    "name": "STARLINK-37426",
    "noradId": "68813",
    "line1": "1 68813U 26089M   26176.54965225  .00022751  00000+0  70472-3 0  9990",
    "line2": "2 68813  97.2861  23.5470 0002261  89.5021 270.6481 15.33452276  9935"
  },
  {
    "name": "STARLINK-37459",
    "noradId": "68814",
    "line1": "1 68814U 26089N   26176.58335648  .00022861  00000+0  70865-3 0  9993",
    "line2": "2 68814  97.2850  23.5829 0001194  99.4218 101.6417 15.33429181  6000"
  },
  {
    "name": "STARLINK-37425",
    "noradId": "68815",
    "line1": "1 68815U 26089P   26176.54149627  .00024379  00000+0  75473-3 0  9996",
    "line2": "2 68815  97.2868  23.5567 0001075  97.0576 263.0789 15.33457298  9938"
  },
  {
    "name": "STARLINK-37315",
    "noradId": "68816",
    "line1": "1 68816U 26089Q   26176.54421794  .00021810  00000+0  67561-3 0  9991",
    "line2": "2 68816  97.2856  23.5504 0001805 101.3803 258.7643 15.33460684  9933"
  },
  {
    "name": "STARLINK-37444",
    "noradId": "68817",
    "line1": "1 68817U 26089R   26176.53877465  .00019917  00000+0  61727-3 0  9994",
    "line2": "2 68817  97.2858  23.5577 0001330  88.8749 271.2646 15.33464025  9933"
  },
  {
    "name": "STARLINK-37450",
    "noradId": "68818",
    "line1": "1 68818U 26089S   26176.53605224  .00020000  00000+0  62030-3 0  9990",
    "line2": "2 68818  97.2870  23.5631 0001547 105.0084 255.1330 15.33438684  9936"
  },
  {
    "name": "STARLINK-37409",
    "noradId": "68819",
    "line1": "1 68819U 26089T   26176.58335648  .00033293  00000+0  10302-2 0  9998",
    "line2": "2 68819  97.2850  23.6167 0002319  85.4219 190.6764 15.33408504  6006"
  },
  {
    "name": "STARLINK-37470",
    "noradId": "68820",
    "line1": "1 68820U 26089U   26176.52518935  .00024284  00000+0  75107-3 0  9991",
    "line2": "2 68820  97.2867  23.5790 0002372  91.5895 268.5620 15.33486920  9933"
  },
  {
    "name": "STARLINK-37421",
    "noradId": "68821",
    "line1": "1 68821U 26089V   26176.53063328  .00024277  00000+0  75112-3 0  9992",
    "line2": "2 68821  97.2854  23.5690 0002774  99.7945 260.3611 15.33475535  9931"
  },
  {
    "name": "STARLINK-37462",
    "noradId": "68822",
    "line1": "1 68822U 26089W   26176.52790216  .00023066  00000+0  71428-3 0  9996",
    "line2": "2 68822  97.2856  23.5747 0002012  94.8916 265.2556 15.33459159  9932"
  },
  {
    "name": "STARLINK-37410",
    "noradId": "68823",
    "line1": "1 68823U 26089X   26176.52246110  .00019137  00000+0  59325-3 0  9992",
    "line2": "2 68823  97.2861  23.5805 0001849 103.2193 256.9256 15.33462950  9930"
  },
  {
    "name": "STARLINK-37443",
    "noradId": "68824",
    "line1": "1 68824U 26089Y   26176.51974323  .00018101  00000+0  56139-3 0  9996",
    "line2": "2 68824  97.2866  23.5876 0001667  89.0797 271.0637 15.33459670  9939"
  },
  {
    "name": "STARLINK-37015",
    "noradId": "68825",
    "line1": "1 68825U 26089Z   26176.51702559  .00022534  00000+0  69757-3 0  9992",
    "line2": "2 68825  97.2868  23.5894 0001831 113.0368 247.1068 15.33474748  9932"
  },
  {
    "name": "STARLINK-37475",
    "noradId": "68839",
    "line1": "1 68839U 26094A   26176.51753326  .00032115  00000+0  99230-3 0  9996",
    "line2": "2 68839  97.2863 190.8250 0000526  94.6883 265.4420 15.33463171  9328"
  }
]