OBJECT_NAME,OBJECT_ID,EPOCH,MEAN_MOTION,ECCENTRICITY,INCLINATION,RA_OF_ASC_NODE,ARG_OF_PERICENTER,MEAN_ANOMALY,EPHEMERIS_TYPE,CLASSIFICATION_TYPE,NORAD_CAT_ID,ELEMENT_SET_NO,REV_AT_EPOCH,BSTAR,MEAN_MOTION_DOT,MEAN_MOTION_DDOT
STARLINK-37404,2026-086W,2026-06-25T13:07:25.933152,15.33484938,.0000975,97.2833,213.2811,57.9623,302.1714,0,U,68786,999,1036,.35388742E-3,.11381E-3,0
STARLINK-37292,2026-086X,2026-06-25T12:55:42.644928,15.33463172,.00005301,97.2854,213.2905,76.3507,283.7794,0,U,68787,999,1036,.7311402E-3,.23616E-3,0
STARLINK-37403,2026-086Y,2026-06-25T13:03:32.251392,15.33455626,.0000459,97.2857,213.2850,111.0423,249.0869,0,U,68788,999,1036,.74249187E-3,.23979E-3,0
STARLINK-37413,2026-086Z,2026-06-25T13:11:21.821568,15.33461025,.00005183,97.2869,213.2756,114.5091,245.6206,0,U,68789,999,1036,.51000299E-3,.16434E-3,0
STARLINK-37313,2026-086AA,2026-06-25T14:00:01.999872,15.33418757,.0001514,97.2853,214.1098,97.5180,170.8842,0,U,68790,999,596,.19383235E-2,.62974E-3,0
STARLINK-37471,2026-089A,2026-06-25T12:20:36.120480,15.33461021,.00016828,97.2868,23.4377,91.0825,269.0611,0,U,68802,999,992,.95903283E-3,.3103E-3,0
STARLINK-37460,2026-089B,2026-06-25T12:16:41.384640,15.33472528,.00026943,97.2852,23.4406,89.9528,270.2024,0,U,68803,999,992,.76344844E-3,.24676E-3,0
STARLINK-37473,2026-089C,2026-06-25T13:46:44.221152,15.33449281,.00023377,97.2853,23.5088,109.4115,250.7380,0,U,68804,999,993,.24399348E-3,.7812E-4,0
STARLINK-36832,2026-089D,2026-06-25T13:38:54.429792,15.33464649,.00021426,97.2852,23.5184,111.9632,248.1838,0,U,68805,999,993,.50822098E-3,.16379E-3,0
STARLINK-37370,2026-089E,2026-06-25T13:42:49.807584,15.33439723,.00024765,97.2857,23.5127,84.0961,276.0564,0,U,68806,999,993,.27619553E-3,.8851E-4,0
STARLINK-37366,2026-089F,2026-06-25T13:35:00.554496,15.33474169,.00026007,97.2848,23.5198,107.9245,252.2282,0,U,68807,999,993,.71443346E-3,.23083E-3,0
STARLINK-37446,2026-089G,2026-06-25T14:00:01.999872,15.33442328,.00016252,97.2851,23.5434,98.0606,12.9458,0,U,68808,999,597,.68746808E-3,.22183E-3,0
STARLINK-37405,2026-089H,2026-06-25T14:00:01.999872,15.33430250,.00023067,97.2851,23.5505,87.6672,38.4038,0,U,68809,999,600,.68243794E-3,.22012E-3,0
STARLINK-37447,2026-089J,2026-06-25T13:23:14.670816,15.33453418,.00014389,97.2868,23.5352,84.0275,276.1132,0,U,68810,999,993,.45111093E-3,.1452E-3,0
STARLINK-37442,2026-089K,2026-06-25T13:15:24.947712,15.33457970,.00017249,97.2860,23.5404,98.1679,261.9760,0,U,68811,999,993,.68190008E-3,.22013E-3,0
STARLINK-37431,2026-089L,2026-06-25T13:19:19.777728,15.33449627,.00016735,97.2859,23.5361,100.4972,259.6459,0,U,68812,999,993,.71045764E-3,.22935E-3,0
STARLINK-37426,2026-089M,2026-06-25T13:11:29.954400,15.33452276,.00022615,97.2861,23.5470,89.5021,270.6481,0,U,68813,999,993,.70472058E-3,.22751E-3,0
STARLINK-37459,2026-089N,2026-06-25T14:00:01.999872,15.33429181,.00011944,97.2850,23.5829,99.4218,101.6417,0,U,68814,999,600,.70865087E-3,.22861E-3,0
STARLINK-37425,2026-089P,2026-06-25T12:59:45.277728,15.33457298,.00010754,97.2868,23.5567,97.0576,263.0789,0,U,68815,999,993,.75473252E-3,.24379E-3,0
STARLINK-37315,2026-089Q,2026-06-25T13:03:40.430016,15.33460684,.00018053,97.2856,23.5504,101.3803,258.7643,0,U,68816,999,993,.67560594E-3,.2181E-3,0
STARLINK-37444,2026-089R,2026-06-25T12:55:50.129760,15.33464025,.00013308,97.2858,23.5577,88.8749,271.2646,0,U,68817,999,993,.61727001E-3,.19917E-3,0
STARLINK-37450,2026-089S,2026-06-25T12:51:54.913536,15.33438684,.00015473,97.2870,23.5631,105.0084,255.1330,0,U,68818,999,993,.62029951E-3,.2E-3,0
STARLINK-37409,2026-089T,2026-06-25T14:00:01.999872,15.33408504,.00023199,97.2850,23.6167,85.4219,190.6764,0,U,68819,999,600,.10301838E-2,.33293E-3,0
STARLINK-37470,2026-089U,2026-06-25T12:36:16.359840,15.33486920,.00023726,97.2867,23.5790,91.5895,268.5620,0,U,68820,999,993,.75106944E-3,.24284E-3,0
STARLINK-37421,2026-089V,2026-06-25T12:44:06.715392,15.33475535,.00027748,97.2854,23.5690,99.7945,260.3611,0,U,68821,999,993,.75111674E-3,.24277E-3,0
STARLINK-37462,2026-089W,2026-06-25T12:40:10.746624,15.33459159,.00020127,97.2856,23.5747,94.8916,265.2556,0,U,68822,999,993,.7142813E-3,.23066E-3,0
STARLINK-37410,2026-089X,2026-06-25T12:32:20.639040,15.33462950,.00018491,97.2861,23.5805,103.2193,256.9256,0,U,68823,999,993,.59324517E-3,.19137E-3,0
STARLINK-37443,2026-089Y,2026-06-25T12:28:25.815072,15.33459670,.00016676,97.2866,23.5876,89.0797,271.0637,0,U,68824,999,993,.56138602E-3,.18101E-3,0
STARLINK-37015,2026-089Z,2026-06-25T12:24:31.010976,15.33474748,.00018314,97.2868,23.5894,113.0368,247.1068,0,U,68825,999,993,.6975749E-3,.22534E-3,0
STARLINK-37475,2026-094A,2026-06-25T12:25:14.873664,15.33463171,.00005263,97.2863,190.8250,94.6883,265.4420,0,U,68839,999,932,.99229953E-3,.32115E-3,0
